GLOBALSTAR M068 [-]     
1 32266U 07048D   24030.20453875 -.00000051  00000+0  29374-3 0  9995
2 32266  51.9898  38.5037 0001079 106.7739 333.1085 12.62777878754179
GLOBALSTAR M079 [+]     
1 37188U 10054A   24029.79003709 -.00000101  00000+0  12904-4 0  9991
2 37188  52.0013 235.2536 0000769  76.6358  53.8816 12.62266219612752
GLOBALSTAR M074 [+]     
1 37189U 10054B   24029.73566505 -.00000099  00000+0  24328-4 0  9993
2 37189  51.9989 234.8200 0001049  81.8014  41.2083 12.62265043613353
GLOBALSTAR M076 [+]     
1 37190U 10054C   24029.76320822 -.00000087  00000+0  95461-4 0  9991
2 37190  52.0004 234.8641 0000946  51.1466  75.2222 12.62274150613070
GLOBALSTAR M077 [+]     
1 37191U 10054D   24029.67165765 -.00000111  00000+0 -38108-4 0  9999
2 37191  52.0050 191.8503 0001097  91.9903  38.7406 12.62269096613438
GLOBALSTAR M075 [+]     
1 37192U 10054E   24029.85482111 -.00000078  00000+0  14575-3 0  9999
2 37192  51.9945 277.1241 0000682  69.0746  54.2128 12.62270203612319
GLOBALSTAR M073 [+]     
1 37193U 10054F   24030.46155769 -.00000104  00000+0 -92264-6 0  9990
2 37193  52.0038 188.7037 0000979  92.6049 271.4017 12.62272005614260
GLOBALSTAR M083 [+]     
1 37739U 11033A   24030.49164668 -.00000081  00000+0  12792-3 0  9993
2 37739  51.9859 138.0333 0000795 117.9539 322.5017 12.62265513583600
GLOBALSTAR M088 [+]     
1 37740U 11033B   24030.05534719 -.00000090  00000+0  74973-4 0  9995
2 37740  51.9745  45.2764 0000329 158.8655 218.6137 12.62264455579022
GLOBALSTAR M091 [+]     
1 37741U 11033C   24029.92538951 -.00000093  00000+0  60604-4 0  9991
2 37741  52.0022   8.3270 0000156 156.4344 289.6019 12.62270588579506
GLOBALSTAR M085 [+]     
1 37742U 11033D   24030.24624538 -.00000068  00000+0  20241-3 0  9990
2 37742  51.9889 318.8376 0000312  75.0735  89.3387 12.62267086580544
GLOBALSTAR M081 [+]     
1 37743U 11033E   24030.27270692 -.00000077  00000+0  14804-3 0  9990
2 37743  51.9983 321.2319 0000251  32.9537 132.1192 12.62268856580580
GLOBALSTAR M089 [+]     
1 37744U 11033F   24029.90868376 -.00000079  00000+0  13728-3 0  9997
2 37744  51.9934 276.6616 0000903  46.2044  84.6469 12.62253851581000
GLOBALSTAR M084 [+]     
1 38040U 11080A   24029.51524280 -.00000092  00000+0  64536-4 0  9998
2 38040  52.0005 144.8792 0000906  86.6430 354.0681 12.62270448558939
GLOBALSTAR M080 [+]     
1 38041U 11080B   24030.51834510 -.00000091  00000+0  72254-4 0  9996
2 38041  52.0056 143.2559 0000777  78.6628   2.0427 12.62268575559326
GLOBALSTAR M082 [+]     
1 38042U 11080C   24029.97136404 -.00000075  00000+0  15839-3 0  9999
2 38042  52.0076 100.3138 0001171 143.3609 271.2620 12.62265470559993
GLOBALSTAR M092 [+]     
1 38043U 11080D   24029.64449796 -.00000107  00000+0 -17587-4 0  9995
2 38043  52.0062 191.6603 0001195  88.5248  37.9709 12.62276025558446
GLOBALSTAR M090 [+]     
1 38044U 11080E   24030.14775319 -.00000077  00000+0  15182-3 0  9999
2 38044  51.9885  94.2334 0000813 141.3906 236.0125 12.62265646560008
GLOBALSTAR M086 [+]     
1 38045U 11080F   24029.94426220 -.00000073  00000+0  17290-3 0  9998
2 38045  51.9897  95.3663 0000459 248.8425 162.6435 12.62266819559980
GLOBALSTAR M097 [+]     
1 39072U 13005A   24030.11748888 -.00000098  00000+0  29736-4 0  9992
2 39072  52.0075   8.8716 0000108 129.2530 230.8346 12.62260269507232
GLOBALSTAR M093 [+]     
1 39073U 13005B   24030.09098728 -.00000097  00000+0  39520-4 0  9992
2 39073  51.9839   3.0621 0000119 190.3493 169.7371 12.62260301507224
GLOBALSTAR M094 [+]     
1 39074U 13005C   24029.85353220 -.00000073  00000+0  17036-3 0  9997
2 39074  51.9957 277.6659 0000591  64.7675 295.3253 12.62271729508688
GLOBALSTAR M096 [+]     
1 39075U 13005D   24030.10452796 -.00000068  00000+0  20050-3 0  9990
2 39075  52.0098 325.0232 0000176  67.8885 292.2000 12.62271857507988
GLOBALSTAR M078 [+]     
1 39076U 13005E   24029.44477286 -.00000007  00000+0  53957-3 0  9992
2 39076  51.9882  52.2263 0001351 134.0932 226.0046 12.62260047506171
GLOBALSTAR M095 [+]     
1 39077U 13005F   24030.18341807 -.00000101  00000+0  16662-4 0  9993
2 39077  51.9810  47.4210 0000858 161.8104 198.2793 12.62262894506486
GLOBALSTAR M087 [+]     
1 52888U 22064A   24030.19854932 -.00000083  00000+0  85393-4 0  9998
2 52888  51.9778 333.0258 0009769  14.5884 345.5297 13.37563691 78920
